STARLINK-4509           
1 53404U 22097S   24134.66398898  .00035312  00000+0  22238-2 0  9999
2 53404  53.2163 219.4707 0001315  38.8661 321.2426 15.08871123 98250
STARLINK-4510           
1 53405U 22097T   24134.47819867  .00060690  00000+0  38009-2 0  9993
2 53405  53.2164 230.3725 0001714 108.8525 251.2653 15.08818856 98094
STARLINK-4533           
1 53406U 22097U   24134.65203726  .00028967  00000+0  18314-2 0  9993
2 53406  53.2175 219.5954 0001452  73.9041 286.2111 15.08824992 98257
STARLINK-4537           
1 53407U 22097V   24134.46158436  .00027620  00000+0  17466-2 0  9992
2 53407  53.2151 210.6800 0001493  78.2912 281.8248 15.08842534 98360
STARLINK-4491           
1 53408U 22097W   24134.53055982  .00040058  00000+0  25186-2 0  9991
2 53408  53.2160 220.1431 0001297  84.8956 275.2184 15.08871229 98235
STARLINK-4490           
1 53409U 22097X   24134.45795615  .00042671  00000+0  26787-2 0  9998
2 53409  53.2149 210.6585 0001610  49.1624 310.9507 15.08898864 98366
STARLINK-4492           
1 53410U 22097Y   24134.52684818  .00002296  00000+0  16235-3 0  9997
2 53410  53.2167 220.1545 0001322  95.4493 264.6650 15.08827547 98238
STARLINK-4497           
1 53411U 22097Z   24135.19659089 -.00001013  00000+0 -45487-4 0  9994
2 53411  53.2166 217.1522 0001891 106.0799 254.0401 15.08873145 97846
STARLINK-4496           
1 53412U 22097AA  24135.24445377  .00022393  00000+0  14180-2 0  9990
2 53412  53.2150 216.9310 0001383  73.6109 286.5035 15.08907305 97852
STARLINK-4500           
1 53413U 22097AB  24134.52322924  .00038130  00000+0  24006-2 0  9997
2 53413  53.2185 220.1744 0001768  73.3144 286.8043 15.08844746 98236
STARLINK-4304           
1 53414U 22097AC  24134.51214501  .00018247  00000+0  11616-2 0  9998
2 53414  53.2163 220.2203 0001323  95.5173 264.5970 15.08840306 98228
STARLINK-4479           
1 53415U 22097AD  24134.64092333  .00024226  00000+0  15338-2 0  9999
2 53415  53.2155 219.6423 0001589  63.3549 296.7606 15.08868312 98220
STARLINK-4480           
1 53416U 22097AE  24135.22239942  .00024526  00000+0  15519-2 0  9998
2 53416  53.2161 216.9817 0001738 100.5920 259.5268 15.08883582 97853
STARLINK-4484           
1 53417U 22097AF  24134.63728042  .00022918  00000+0  14518-2 0  9998
2 53417  53.2159 219.6582 0001426 110.5844 249.5301 15.08879225 98228
STARLINK-4481           
1 53418U 22097AG  24134.59773450  .00037479  00000+0  23617-2 0  9995
2 53418  53.2147 209.4018 0001454  98.2783 261.8374 15.08821283 98398
STARLINK-4476           
1 53419U 22097AH  24134.50109414  .00058415  00000+0  36506-2 0  9994
2 53419  53.2151 220.2695 0002100  73.4213 286.7010 15.08915863 98209
STARLINK-4552           
1 53420U 22097AJ  24135.21876580  .00032030  00000+0  20221-2 0  9992
2 53420  53.2144 217.0497 0001130  91.1225 268.9897 15.08827809 97856
STARLINK-4545           
1 53421U 22097AK  24135.22608017  .00029606  00000+0  18673-2 0  9995
2 53421  53.2136 217.0123 0001194  69.4240 290.6880 15.08901981 97857
STARLINK-4546           
1 53422U 22097AL  24135.21134118  .00015210  00000+0  97050-3 0  9994
2 53422  53.2189 217.0827 0002009 123.2462 236.8723 15.08884975 97859
STARLINK-4539           
1 53423U 22097AM  24134.49469476  .00001422  00000+0  10743-3 0  9996
2 53423  53.2173 220.3079 0001507  94.6156 265.5008 15.08843803 98202
STARLINK-4532           
1 53424U 22097AN  24135.20402538  .00019714  00000+0  12508-2 0  9996
2 53424  53.2152 217.1163 0001213  70.9182 289.1942 15.08913181 97854
STARLINK-4531           
1 53425U 22097AP  24135.21501455  .00012548  00000+0  80386-3 0  9994
2 53425  53.2163 217.0653 0001501 100.0545 260.0617 15.08894274 97856
STARLINK-4558           
1 53426U 22097AQ  24134.65294227  .00014587  00000+0  93312-3 0  9996
2 53426  53.2164 209.7455 0001956  75.7045 284.4164 15.08824392 98383
STARLINK-4541           
1 53427U 22097AR  24134.61150568  .00036430  00000+0  22931-2 0  9991
2 53427  53.2148 219.7744 0000979  35.7784 324.3274 15.08874431 98248
STARLINK-4540           
1 53428U 22097AS  24134.57930300  .00014234  00000+0  91141-3 0  9995
2 53428  53.2164 209.9974 0001295  89.1305 270.9836 15.08807908 97892
STARLINK-4543           
1 53429U 22097AT  24134.58298535  .00011482  00000+0  73860-3 0  9994
2 53429  53.2154 210.0196 0001698  66.0803 294.0367 15.08826626 98373
STARLINK-4538           
1 53430U 22097AU  24135.17177389  .00015590  00000+0  99824-3 0  9997
2 53430  53.2159 207.2941 0000920  99.0177 261.0920 15.08736848 97984
STARLINK-4548           
1 53431U 22097AV  24135.19747753  .00018760  00000+0  11923-2 0  9993
2 53431  53.2144 206.7580 0001389  89.9943 270.1208 15.08881101 97995
STARLINK-4557           
1 53432U 22097AW  24134.48359994  .00017610  00000+0  11215-2 0  9998
2 53432  53.2165 210.1091 0001749  98.3113 261.8078 15.08847932 98366
STARLINK-4549           
1 53433U 22097AX  24134.50570450  .00023770  00000+0  15064-2 0  9994
2 53433  53.2156 210.2467 0001468  79.6660 280.4497 15.08842860 98347
STARLINK-4498           
1 53434U 22097AY  24135.20862785 -.00015916  00000+0 -98245-3 0  9996
2 53434  53.2170 206.8146 0001350 103.3509 256.7633 15.08901787 97998
STARLINK-4542           
1 53435U 22097AZ  24134.55359229  .00033733  00000+0  21288-2 0  9995
2 53435  53.2153 209.8321 0001623 101.3868 258.7307 15.08816454 97892
STARLINK-4527           
1 53436U 22097BA  24135.20489851  .00014578  00000+0  93071-3 0  9990
2 53436  53.2147 206.7948 0001470  73.7379 286.3775 15.08895095 97991
STARLINK-4526           
1 53438U 22097BC  24135.20120383  .00018527  00000+0  11769-2 0  9995
2 53438  53.2145 206.7718 0001725  47.5759 312.5379 15.08908728 97990
STARLINK-4519           
1 53439U 22097BD  24135.21324252  .00018244  00000+0  11592-2 0  9998
2 53439  53.2150 206.8413 0001237  79.1553 280.9578 15.08910552 97998
DONGPO 07               
1 53444U 22098A   24135.20478245  .00020501  00000+0  86593-3 0  9999
2 53444  97.5229 234.5909 0008910 183.3890 176.7287 15.23248954 97319
JILIN-1 GAOFEN 03D09    
1 53445U 22098B   24135.23856107  .00020642  00000+0  87285-3 0  9995
2 53445  97.5260 234.9432 0006018 209.4598 150.6300 15.23230939 97313
2022-098C               
1 53446U 22098C   24135.19932810  .00019706  00000+0  83293-3 0  9991
2 53446  97.5277 234.9730 0008123 194.1159 165.9852 15.23240373 97308
DONGPO 06               
1 53447U 22098D   24135.19184227  .00019430  00000+0  82119-3 0  9993
2 53447  97.5194 234.2536 0007915 195.5997 164.4997 15.23248758 97306
JILIN-1 GAOFEN 03D43    
1 53448U 22098E   24135.18670303  .00019502  00000+0  82507-3 0  9999
2 53448  97.5262 234.8640 0007943 216.9834 143.0856 15.23213728 97300
DONGPO 05               
1 53449U 22098F   24135.17761946  .00020047  00000+0  84730-3 0  9999
2 53449  97.5199 234.3943 0006910 208.0441 152.0425 15.23247552 97304
DONGPO 03               
1 53450U 22098G   24135.23119132  .00020727  00000+0  87595-3 0  9999
2 53450  97.5264 234.9448 0004851 213.0790 147.0144 15.23255088 97316
DONGPO 04               
1 53451U 22098H   24135.22831572  .00021158  00000+0  89395-3 0  9997
2 53451  97.5321 235.3794 0004506 219.9421 140.1485 15.23259962 97310
DONGPO 02               
1 53452U 22098J   24135.21760579  .00020609  00000+0  87167-3 0  9990
2 53452  97.5206 234.5274 0004890 216.5941 143.4962 15.23228299 97318
DONGPO 01               
1 53453U 22098K   24135.21092618  .00020279  00000+0  85899-3 0  9996
2 53453  97.5263 234.9668 0004696 210.1700 149.9267 15.23181234 97316
YUNYAO-1 06             
1 53454U 22098L   24135.23378755  .00131031  00000+0  20077-2 0  9993
2 53454  97.5166 243.3031 0007618 207.1052 152.9804 15.53843597 97894
YUNYAO-1 07             
1 53455U 22098M   24135.22319494  .00104485  00000+0  19063-2 0  9994
2 53455  97.5202 242.8726 0007150 206.9556 153.1324 15.49030821 97857
YUNYAO-1 05             
1 53456U 22098N   24135.19581803  .00109198  00000+0  19369-2 0  9991
2 53456  97.5173 242.6182 0008420 210.4328 149.6435 15.49808162 97851
YUNYAO-1 04             
1 53457U 22098P   24135.23779401  .00092876  00000+0  16946-2 0  9992
2 53457  97.5162 242.7428 0006673 207.6853 152.4044 15.49077682 97867
YUNYAO-1 08             
1 53458U 22098Q   24135.18412691  .00097681  00000+0  17842-2 0  9997
2 53458  97.5220 243.0523 0007800 203.9473 156.1416 15.49019523 97856
TIANJIN BINHAI-1        
1 53459U 22098R   24135.20614219  .00091750  00000+0  16990-2 0  9995
2 53459  97.5198 242.8623 0005173 210.8948 149.1999 15.48666835 97855
STARLINK-4415           
1 53465U 22099A   24134.60367776  .00018546  00000+0  14436-2 0  9994
2 53465  97.6537 255.9496 0002114  67.4599 292.6849 15.01287911 96448
STARLINK-4398           
1 53466U 22099B   24134.80389468  .00013551  00000+0  10570-2 0  9995
2 53466  97.6541 256.1426 0001820  78.9157 281.2272 15.01279605 96221
STARLINK-4394           
1 53467U 22099C   24134.59998114  .00023537  00000+0  18307-2 0  9997
2 53467  97.6542 255.9981 0001752  76.5030 283.6389 15.01266078 96432
STARLINK-4400           
1 53468U 22099D   24134.60022340  .00014873  00000+0  11600-2 0  9991
2 53468  97.6539 255.9410 0001889  78.4809 281.6627 15.01262377 96433
STARLINK-4399           
1 53469U 22099E   24134.59629352  .00020322  00000+0  15816-2 0  9995
2 53469  97.6538 255.9410 0001893  81.0314 279.1125 15.01273660 96431
STARLINK-4393           
1 53470U 22099F   24134.33152636  .00009060  00000+0  70973-3 0  9997
2 53470  97.6538 255.6762 0001848  98.5102 261.6331 15.01223326 96392
STARLINK-4316           
1 53471U 22099G   24134.59259968  .00014942  00000+0  11650-2 0  9993
2 53471  97.6538 255.9367 0001858  88.3286 271.8151 15.01274493 96190
